ORBCOMM FM115 [+]       
1 41186U 15081H   24087.85628449  .00001559  00000+0  35338-3 0  9996
2 41186  46.9998 359.0393 0000758 222.8717 137.2110 14.60498149442481
ORBCOMM FM108 [+]       
1 41187U 15081J   24087.91742685  .00001531  00000+0  37900-3 0  9990
2 41187  47.0045  51.6787 0002107  43.2031 316.9019 14.56398535441704
ORBCOMM FM117 [+]       
1 41188U 15081K   24087.95189286  .00001517  00000+0  37599-3 0  9995
2 41188  47.0008  50.4252 0002407  59.6949 300.4173 14.56403487441757
ORBCOMM FM116 [+]       
1 41189U 15081L   24087.87266151  .00001531  00000+0  37882-3 0  9995
2 41189  46.9998 140.6176 0002218 203.4185 156.6599 14.56429696440552
