<?xml version="1.0" encoding="UTF-8"?>
<ndm xmlns:xsi="http://www.w3.org/2001/XMLSchema-instance" xsi:noNamespaceSchemaLocation="https://sanaregistry.org/r/ndmxml_unqualified/ndmxml-2.0.0-master-2.0.xsd">
<omm id="CCSDS_OMM_VERS" version="2.0">
<header><CREATION_DATE/><ORIGINATOR/></header><body><segment><metadata><OBJECT_NAME>ORBCOMM FM115 [+]</OBJECT_NAME><OBJECT_ID>2015-081H</OBJECT_ID><CENTER_NAME>EARTH</CENTER_NAME><REF_FRAME>TEME</REF_FRAME><TIME_SYSTEM>UTC</TIME_SYSTEM><MEAN_ELEMENT_THEORY>SGP4</MEAN_ELEMENT_THEORY></metadata><data><meanElements><EPOCH>2024-03-27T20:33:02.979936</EPOCH><MEAN_MOTION>14.60498149</MEAN_MOTION><ECCENTRICITY>.0000758</ECCENTRICITY><INCLINATION>46.9998</INCLINATION><RA_OF_ASC_NODE>359.0393</RA_OF_ASC_NODE><ARG_OF_PERICENTER>222.8717</ARG_OF_PERICENTER><MEAN_ANOMALY>137.2110</MEAN_ANOMALY></meanElements><tleParameters><EPHEMERIS_TYPE>0</EPHEMERIS_TYPE><CLASSIFICATION_TYPE>U</CLASSIFICATION_TYPE><NORAD_CAT_ID>41186</NORAD_CAT_ID><ELEMENT_SET_NO>999</ELEMENT_SET_NO><REV_AT_EPOCH>44248</REV_AT_EPOCH><BSTAR>.35338E-3</BSTAR><MEAN_MOTION_DOT>.1559E-4</MEAN_MOTION_DOT><MEAN_MOTION_DDOT>0</MEAN_MOTION_DDOT></tleParameters></data></segment></body></omm>
<omm id="CCSDS_OMM_VERS" version="2.0">
<header><CREATION_DATE/><ORIGINATOR/></header><body><segment><metadata><OBJECT_NAME>ORBCOMM FM108 [+]</OBJECT_NAME><OBJECT_ID>2015-081J</OBJECT_ID><CENTER_NAME>EARTH</CENTER_NAME><REF_FRAME>TEME</REF_FRAME><TIME_SYSTEM>UTC</TIME_SYSTEM><MEAN_ELEMENT_THEORY>SGP4</MEAN_ELEMENT_THEORY></metadata><data><meanElements><EPOCH>2024-03-27T22:01:05.679840</EPOCH><MEAN_MOTION>14.56398535</MEAN_MOTION><ECCENTRICITY>.0002107</ECCENTRICITY><INCLINATION>47.0045</INCLINATION><RA_OF_ASC_NODE>51.6787</RA_OF_ASC_NODE><ARG_OF_PERICENTER>43.2031</ARG_OF_PERICENTER><MEAN_ANOMALY>316.9019</MEAN_ANOMALY></meanElements><tleParameters><EPHEMERIS_TYPE>0</EPHEMERIS_TYPE><CLASSIFICATION_TYPE>U</CLASSIFICATION_TYPE><NORAD_CAT_ID>41187</NORAD_CAT_ID><ELEMENT_SET_NO>999</ELEMENT_SET_NO><REV_AT_EPOCH>44170</REV_AT_EPOCH><BSTAR>.379E-3</BSTAR><MEAN_MOTION_DOT>.1531E-4</MEAN_MOTION_DOT><MEAN_MOTION_DDOT>0</MEAN_MOTION_DDOT></tleParameters></data></segment></body></omm>
<omm id="CCSDS_OMM_VERS" version="2.0">
<header><CREATION_DATE/><ORIGINATOR/></header><body><segment><metadata><OBJECT_NAME>ORBCOMM FM117 [+]</OBJECT_NAME><OBJECT_ID>2015-081K</OBJECT_ID><CENTER_NAME>EARTH</CENTER_NAME><REF_FRAME>TEME</REF_FRAME><TIME_SYSTEM>UTC</TIME_SYSTEM><MEAN_ELEMENT_THEORY>SGP4</MEAN_ELEMENT_THEORY></metadata><data><meanElements><EPOCH>2024-03-27T22:50:43.543104</EPOCH><MEAN_MOTION>14.56403487</MEAN_MOTION><ECCENTRICITY>.0002407</ECCENTRICITY><INCLINATION>47.0008</INCLINATION><RA_OF_ASC_NODE>50.4252</RA_OF_ASC_NODE><ARG_OF_PERICENTER>59.6949</ARG_OF_PERICENTER><MEAN_ANOMALY>300.4173</MEAN_ANOMALY></meanElements><tleParameters><EPHEMERIS_TYPE>0</EPHEMERIS_TYPE><CLASSIFICATION_TYPE>U</CLASSIFICATION_TYPE><NORAD_CAT_ID>41188</NORAD_CAT_ID><ELEMENT_SET_NO>999</ELEMENT_SET_NO><REV_AT_EPOCH>44175</REV_AT_EPOCH><BSTAR>.37599E-3</BSTAR><MEAN_MOTION_DOT>.1517E-4</MEAN_MOTION_DOT><MEAN_MOTION_DDOT>0</MEAN_MOTION_DDOT></tleParameters></data></segment></body></omm>
<omm id="CCSDS_OMM_VERS" version="2.0">
<header><CREATION_DATE/><ORIGINATOR/></header><body><segment><metadata><OBJECT_NAME>ORBCOMM FM116 [+]</OBJECT_NAME><OBJECT_ID>2015-081L</OBJECT_ID><CENTER_NAME>EARTH</CENTER_NAME><REF_FRAME>TEME</REF_FRAME><TIME_SYSTEM>UTC</TIME_SYSTEM><MEAN_ELEMENT_THEORY>SGP4</MEAN_ELEMENT_THEORY></metadata><data><meanElements><EPOCH>2024-03-27T20:56:37.954464</EPOCH><MEAN_MOTION>14.56429696</MEAN_MOTION><ECCENTRICITY>.0002218</ECCENTRICITY><INCLINATION>46.9998</INCLINATION><RA_OF_ASC_NODE>140.6176</RA_OF_ASC_NODE><ARG_OF_PERICENTER>203.4185</ARG_OF_PERICENTER><MEAN_ANOMALY>156.6599</MEAN_ANOMALY></meanElements><tleParameters><EPHEMERIS_TYPE>0</EPHEMERIS_TYPE><CLASSIFICATION_TYPE>U</CLASSIFICATION_TYPE><NORAD_CAT_ID>41189</NORAD_CAT_ID><ELEMENT_SET_NO>999</ELEMENT_SET_NO><REV_AT_EPOCH>44055</REV_AT_EPOCH><BSTAR>.37882E-3</BSTAR><MEAN_MOTION_DOT>.1531E-4</MEAN_MOTION_DOT><MEAN_MOTION_DDOT>0</MEAN_MOTION_DDOT></tleParameters></data></segment></body></omm>
</ndm>
